STARLINK-4004           
1 52656U 22053A   23150.62197410  .00001412  00000+0  10680-3 0  9992
2 52656  53.2178  26.4454 0001176  79.6865 280.4260 15.08837663 58027
STARLINK-4084           
1 52657U 22053B   23149.96693454  .00000226  00000+0  32293-4 0  9994
2 52657  53.2177  29.3863 0000940  86.6975 273.4125 15.08834236 58228
STARLINK-4082           
1 52658U 22053C   23150.09573312  .00000499  00000+0  49446-4 0  9991
2 52658  53.2179  28.8117 0001120 100.8652 259.2466 15.08836937 58061
STARLINK-3960           
1 52659U 22053D   23150.03045427 -.00001273  00000+0 -61925-4 0  9996
2 52659  53.2176  29.1006 0001087  87.9185 272.1931 15.08831612 58042
STARLINK-4081           
1 52660U 22053E   23149.95588897 -.00000393  00000+0 -65888-5 0  9995
2 52660  53.2179  29.4365 0001192  89.3654 270.7475 15.08838955 57922
STARLINK-4042           
1 52661U 22053F   23150.61461253  .00000002  00000+0  18238-4 0  9998
2 52661  53.2175  26.4782 0001177  82.7174 277.3952 15.08841143 57955
STARLINK-4044           
1 52662U 22053G   23150.07733590 -.00001507  00000+0 -76637-4 0  9995
2 52662  53.2184  28.8906 0001221  85.2849 274.8282 15.08835534 57873
STARLINK-4037           
1 52663U 22053H   23150.07365419 -.00000555  00000+0 -16789-4 0  9991
2 52663  53.2179  28.9081 0001121  84.1336 275.9784 15.08836994 57871
STARLINK-4070           
1 52664U 22053J   23149.94853502 -.00001011  00000+0 -45431-4 0  9995
2 52664  53.2198  29.4692 0001369  86.6185 273.4964 15.08837717 57855
STARLINK-4064           
1 52665U 22053K   23150.06261667 -.00000621  00000+0 -20964-4 0  9996
2 52665  53.2195  28.9561 0001086  94.0321 266.0795 15.08834681 57872
STARLINK-4079           
1 52666U 22053L   23150.07093136  .00003565  00000+0  24193-3 0  9997
2 52666  53.2178  28.9301 0001294  95.2143 264.8997 15.08845258 57874
STARLINK-4076           
1 52667U 22053M   23150.05893626 -.00000488  00000+0 -12595-4 0  9995
2 52667  53.2193  28.9738 0001250  94.7176 265.3959 15.08838414 57878
STARLINK-4067           
1 52668U 22053N   23149.93381062 -.00001053  00000+0 -48098-4 0  9993
2 52668  53.2189  29.5350 0001238  94.3284 265.7850 15.08842683 57858
STARLINK-3972           
1 52669U 22053P   23150.04788791 -.00007062  00000+0 -42575-3 0  9997
2 52669  53.2189  29.0222 0000858 100.3525 259.7564 15.08866104 57865
STARLINK-4075           
1 52670U 22053Q   23150.06998279 -.00000499  00000+0 -13252-4 0  9993
2 52670  53.2191  28.9901 0001117  89.1698 270.9422 15.08836308 57878
STARLINK-4071           
1 52671U 22053R   23150.04421592 -.00000128  00000+0  10045-4 0  9996
2 52671  53.2182  29.0378 0001340  83.6316 276.4829 15.08837985 57866
STARLINK-4073           
1 52672U 22053S   23150.05525684 -.00000248  00000+0  25173-5 0  9997
2 52672  53.2183  28.9907 0001185  96.9197 263.1930 15.08835915 57862
