[{"OBJECT_NAME":"STARLINK-4004","OBJECT_ID":"2022-053A","EPOCH":"2023-05-30T14:55:38.562240","MEAN_MOTION":15.08837663,"ECCENTRICITY":0.0001176,"INCLINATION":53.2178,"RA_OF_ASC_NODE":26.4454,"ARG_OF_PERICENTER":79.6865,"MEAN_ANOMALY":280.426,"EPHEMERIS_TYPE":0,"CLASSIFICATION_TYPE":"U","NORAD_CAT_ID":52656,"ELEMENT_SET_NO":999,"REV_AT_EPOCH":5802,"BSTAR":0.0001068,"MEAN_MOTION_DOT":1.412e-5,"MEAN_MOTION_DDOT":0},{"OBJECT_NAME":"STARLINK-4084","OBJECT_ID":"2022-053B","EPOCH":"2023-05-29T23:12:23.144256","MEAN_MOTION":15.08834236,"ECCENTRICITY":9.4e-5,"INCLINATION":53.2177,"RA_OF_ASC_NODE":29.3863,"ARG_OF_PERICENTER":86.6975,"MEAN_ANOMALY":273.4125,"EPHEMERIS_TYPE":0,"CLASSIFICATION_TYPE":"U","NORAD_CAT_ID":52657,"ELEMENT_SET_NO":999,"REV_AT_EPOCH":5822,"BSTAR":3.2293e-5,"MEAN_MOTION_DOT":2.26e-6,"MEAN_MOTION_DDOT":0},{"OBJECT_NAME":"STARLINK-4082","OBJECT_ID":"2022-053C","EPOCH":"2023-05-30T02:17:51.341568","MEAN_MOTION":15.08836937,"ECCENTRICITY":0.000112,"INCLINATION":53.2179,"RA_OF_ASC_NODE":28.8117,"ARG_OF_PERICENTER":100.8652,"MEAN_ANOMALY":259.2466,"EPHEMERIS_TYPE":0,"CLASSIFICATION_TYPE":"U","NORAD_CAT_ID":52658,"ELEMENT_SET_NO":999,"REV_AT_EPOCH":5806,"BSTAR":4.9446e-5,"MEAN_MOTION_DOT":4.99e-6,"MEAN_MOTION_DDOT":0},{"OBJECT_NAME":"STARLINK-3960","OBJECT_ID":"2022-053D","EPOCH":"2023-05-30T00:43:51.248928","MEAN_MOTION":15.08831612,"ECCENTRICITY":0.0001087,"INCLINATION":53.2176,"RA_OF_ASC_NODE":29.1006,"ARG_OF_PERICENTER":87.9185,"MEAN_ANOMALY":272.1931,"EPHEMERIS_TYPE":0,"CLASSIFICATION_TYPE":"U","NORAD_CAT_ID":52659,"ELEMENT_SET_NO":999,"REV_AT_EPOCH":5804,"BSTAR":-6.1925e-5,"MEAN_MOTION_DOT":-1.273e-5,"MEAN_MOTION_DDOT":0},{"OBJECT_NAME":"STARLINK-4081","OBJECT_ID":"2022-053E","EPOCH":"2023-05-29T22:56:28.807008","MEAN_MOTION":15.08838955,"ECCENTRICITY":0.0001192,"INCLINATION":53.2179,"RA_OF_ASC_NODE":29.4365,"ARG_OF_PERICENTER":89.3654,"MEAN_ANOMALY":270.7475,"EPHEMERIS_TYPE":0,"CLASSIFICATION_TYPE":"U","NORAD_CAT_ID":52660,"ELEMENT_SET_NO":999,"REV_AT_EPOCH":5792,"BSTAR":-6.5888e-6,"MEAN_MOTION_DOT":-3.93e-6,"MEAN_MOTION_DDOT":0},{"OBJECT_NAME":"STARLINK-4042","OBJECT_ID":"2022-053F","EPOCH":"2023-05-30T14:45:02.522592","MEAN_MOTION":15.08841143,"ECCENTRICITY":0.0001177,"INCLINATION":53.2175,"RA_OF_ASC_NODE":26.4782,"ARG_OF_PERICENTER":82.7174,"MEAN_ANOMALY":277.3952,"EPHEMERIS_TYPE":0,"CLASSIFICATION_TYPE":"U","NORAD_CAT_ID":52661,"ELEMENT_SET_NO":999,"REV_AT_EPOCH":5795,"BSTAR":1.8238e-5,"MEAN_MOTION_DOT":2.0e-8,"MEAN_MOTION_DDOT":0},{"OBJECT_NAME":"STARLINK-4044","OBJECT_ID":"2022-053G","EPOCH":"2023-05-30T01:51:21.821760","MEAN_MOTION":15.08835534,"ECCENTRICITY":0.0001221,"INCLINATION":53.2184,"RA_OF_ASC_NODE":28.8906,"ARG_OF_PERICENTER":85.2849,"MEAN_ANOMALY":274.8282,"EPHEMERIS_TYPE":0,"CLASSIFICATION_TYPE":"U","NORAD_CAT_ID":52662,"ELEMENT_SET_NO":999,"REV_AT_EPOCH":5787,"BSTAR":-7.6637e-5,"MEAN_MOTION_DOT":-1.507e-5,"MEAN_MOTION_DDOT":0},{"OBJECT_NAME":"STARLINK-4037","OBJECT_ID":"2022-053H","EPOCH":"2023-05-30T01:46:03.722016","MEAN_MOTION":15.08836994,"ECCENTRICITY":0.0001121,"INCLINATION":53.2179,"RA_OF_ASC_NODE":28.9081,"ARG_OF_PERICENTER":84.1336,"MEAN_ANOMALY":275.9784,"EPHEMERIS_TYPE":0,"CLASSIFICATION_TYPE":"U","NORAD_CAT_ID":52663,"ELEMENT_SET_NO":999,"REV_AT_EPOCH":5787,"BSTAR":-1.6789e-5,"MEAN_MOTION_DOT":-5.55e-6,"MEAN_MOTION_DDOT":0},{"OBJECT_NAME":"STARLINK-4070","OBJECT_ID":"2022-053J","EPOCH":"2023-05-29T22:45:53.425728","MEAN_MOTION":15.08837717,"ECCENTRICITY":0.0001369,"INCLINATION":53.2198,"RA_OF_ASC_NODE":29.4692,"ARG_OF_PERICENTER":86.6185,"MEAN_ANOMALY":273.4964,"EPHEMERIS_TYPE":0,"CLASSIFICATION_TYPE":"U","NORAD_CAT_ID":52664,"ELEMENT_SET_NO":999,"REV_AT_EPOCH":5785,"BSTAR":-4.5431e-5,"MEAN_MOTION_DOT":-1.011e-5,"MEAN_MOTION_DDOT":0},{"OBJECT_NAME":"STARLINK-4064","OBJECT_ID":"2022-053K","EPOCH":"2023-05-30T01:30:10.080288","MEAN_MOTION":15.08834681,"ECCENTRICITY":0.0001086,"INCLINATION":53.2195,"RA_OF_ASC_NODE":28.9561,"ARG_OF_PERICENTER":94.0321,"MEAN_ANOMALY":266.0795,"EPHEMERIS_TYPE":0,"CLASSIFICATION_TYPE":"U","NORAD_CAT_ID":52665,"ELEMENT_SET_NO":999,"REV_AT_EPOCH":5787,"BSTAR":-2.0964e-5,"MEAN_MOTION_DOT":-6.21e-6,"MEAN_MOTION_DDOT":0},{"OBJECT_NAME":"STARLINK-4079","OBJECT_ID":"2022-053L","EPOCH":"2023-05-30T01:42:08.469504","MEAN_MOTION":15.08845258,"ECCENTRICITY":0.0001294,"INCLINATION":53.2178,"RA_OF_ASC_NODE":28.9301,"ARG_OF_PERICENTER":95.2143,"MEAN_ANOMALY":264.8997,"EPHEMERIS_TYPE":0,"CLASSIFICATION_TYPE":"U","NORAD_CAT_ID":52666,"ELEMENT_SET_NO":999,"REV_AT_EPOCH":5787,"BSTAR":0.00024193,"MEAN_MOTION_DOT":3.565e-5,"MEAN_MOTION_DDOT":0},{"OBJECT_NAME":"STARLINK-4076","OBJECT_ID":"2022-053M","EPOCH":"2023-05-30T01:24:52.092864","MEAN_MOTION":15.08838414,"ECCENTRICITY":0.000125,"INCLINATION":53.2193,"RA_OF_ASC_NODE":28.9738,"ARG_OF_PERICENTER":94.7176,"MEAN_ANOMALY":265.3959,"EPHEMERIS_TYPE":0,"CLASSIFICATION_TYPE":"U","NORAD_CAT_ID":52667,"ELEMENT_SET_NO":999,"REV_AT_EPOCH":5787,"BSTAR":-1.2595e-5,"MEAN_MOTION_DOT":-4.88e-6,"MEAN_MOTION_DDOT":0},{"OBJECT_NAME":"STARLINK-4067","OBJECT_ID":"2022-053N","EPOCH":"2023-05-29T22:24:41.237568","MEAN_MOTION":15.08842683,"ECCENTRICITY":0.0001238,"INCLINATION":53.2189,"RA_OF_ASC_NODE":29.535,"ARG_OF_PERICENTER":94.3284,"MEAN_ANOMALY":265.785,"EPHEMERIS_TYPE":0,"CLASSIFICATION_TYPE":"U","NORAD_CAT_ID":52668,"ELEMENT_SET_NO":999,"REV_AT_EPOCH":5785,"BSTAR":-4.8098e-5,"MEAN_MOTION_DOT":-1.053e-5,"MEAN_MOTION_DDOT":0},{"OBJECT_NAME":"STARLINK-3972","OBJECT_ID":"2022-053P","EPOCH":"2023-05-30T01:08:57.515424","MEAN_MOTION":15.08866104,"ECCENTRICITY":8.58e-5,"INCLINATION":53.2189,"RA_OF_ASC_NODE":29.0222,"ARG_OF_PERICENTER":100.3525,"MEAN_ANOMALY":259.7564,"EPHEMERIS_TYPE":0,"CLASSIFICATION_TYPE":"U","NORAD_CAT_ID":52669,"ELEMENT_SET_NO":999,"REV_AT_EPOCH":5786,"BSTAR":-0.00042575,"MEAN_MOTION_DOT":-7.062e-5,"MEAN_MOTION_DDOT":0},{"OBJECT_NAME":"STARLINK-4075","OBJECT_ID":"2022-053Q","EPOCH":"2023-05-30T01:40:46.513056","MEAN_MOTION":15.08836308,"ECCENTRICITY":0.0001117,"INCLINATION":53.2191,"RA_OF_ASC_NODE":28.9901,"ARG_OF_PERICENTER":89.1698,"MEAN_ANOMALY":270.9422,"EPHEMERIS_TYPE":0,"CLASSIFICATION_TYPE":"U","NORAD_CAT_ID":52670,"ELEMENT_SET_NO":999,"REV_AT_EPOCH":5787,"BSTAR":-1.3252e-5,"MEAN_MOTION_DOT":-4.99e-6,"MEAN_MOTION_DDOT":0},{"OBJECT_NAME":"STARLINK-4071","OBJECT_ID":"2022-053R","EPOCH":"2023-05-30T01:03:40.255488","MEAN_MOTION":15.08837985,"ECCENTRICITY":0.000134,"INCLINATION":53.2182,"RA_OF_ASC_NODE":29.0378,"ARG_OF_PERICENTER":83.6316,"MEAN_ANOMALY":276.4829,"EPHEMERIS_TYPE":0,"CLASSIFICATION_TYPE":"U","NORAD_CAT_ID":52671,"ELEMENT_SET_NO":999,"REV_AT_EPOCH":5786,"BSTAR":1.0045e-5,"MEAN_MOTION_DOT":-1.28e-6,"MEAN_MOTION_DDOT":0},{"OBJECT_NAME":"STARLINK-4073","OBJECT_ID":"2022-053S","EPOCH":"2023-05-30T01:19:34.190976","MEAN_MOTION":15.08835915,"ECCENTRICITY":0.0001185,"INCLINATION":53.2183,"RA_OF_ASC_NODE":28.9907,"ARG_OF_PERICENTER":96.9197,"MEAN_ANOMALY":263.193,"EPHEMERIS_TYPE":0,"CLASSIFICATION_TYPE":"U","NORAD_CAT_ID":52672,"ELEMENT_SET_NO":999,"REV_AT_EPOCH":5786,"BSTAR":2.5173e-6,"MEAN_MOTION_DOT":-2.48e-6,"MEAN_MOTION_DDOT":0}]
